SatCatId,ObjectName,LaunchYear,OrbitalPeriod,LaunchMass,StatusCode,Inclination,Status,UcsData,OrbitClassEstimated,LaunchSiteCountry,Owner,UseType,Purpose,LaunchVehicleClass,TLE1,TLE2,MeanMotion,Eccentricity,OrbitClass
63779,STARLINK-33881,2025,94.27,-1.0,+,43.0,Active,0,LEO,USA,USA,Unknown,Unknown,Unknown,1 63779U 25091E   25256.26994876  .00015068  00000+0  55574-3 0  9998,2 63779  43.0023 334.8949 0000466 309.2043  50.8767 15.27593250 21761,15.2759325,4.66e-05,LEO
63780,STARLINK-33846,2025,94.27,-1.0,+,43.0,Active,0,LEO,USA,USA,Unknown,Unknown,Unknown,1 63780U 25091F   25256.25966932  .00016459  00000+0  60637-3 0  9992,2 63780  43.0003 334.8136 0001018 279.7364  80.3373 15.27576275 21815,15.27576275,0.0001018,LEO
63781,STARLINK-33883,2025,94.27,-1.0,+,43.0,Active,0,LEO,USA,USA,Unknown,Unknown,Unknown,1 63781U 25091G   25256.25581358  .00015738  00000+0  57994-3 0  9999,2 63781  43.0009 334.7847 0000163 355.5806   4.5044 15.27595570 21760,15.2759557,1.63e-05,LEO
63782,STARLINK-33842,2025,94.27,-1.0,+,43.0,Active,0,LEO,USA,USA,Unknown,Unknown,Unknown,1 63782U 25091H   25256.24168137  .00020452  00000+0  75083-3 0  9993,2 63782  42.9984 334.6820 0001097 292.0069  68.0665 15.27573718 21858,15.27573718,0.0001097,LEO
63783,STARLINK-33892,2025,94.27,-1.0,+,43.0,Active,0,LEO,USA,USA,Unknown,Unknown,Unknown,1 63783U 25091J   25256.24038697  .00001852  00000+0  76844-4 0  9991,2 63783  43.0012 334.6669 0001525 258.9658 101.1023 15.27565135 21766,15.27565135,0.0001525,LEO
63784,STARLINK-33933,2025,94.27,-1.0,+,43.0,Active,0,LEO,USA,USA,Unknown,Unknown,Unknown,1 63784U 25091K   25256.24136280  .00023539  00000+0  86181-3 0  9999,2 63784  42.9973 327.7229 0000782 265.8839  94.1923 15.27593795 21952,15.27593795,7.82e-05,LEO
63785,STARLINK-33906,2025,94.27,-1.0,+,43.0,Active,0,LEO,USA,USA,Unknown,Unknown,Unknown,1 63785U 25091L   25256.24810454  .00012035  00000+0  44609-3 0  9990,2 63785  43.0010 334.7265 0000679 278.5765  81.5009 15.27584172 21717,15.27584172,6.79e-05,LEO
63786,STARLINK-33923,2025,94.27,-1.0,+,43.0,Active,0,LEO,USA,USA,Unknown,Unknown,Unknown,1 63786U 25091M   25255.91989095  .00035652  00000+0  12989-2 0  9997,2 63786  42.9983 336.5626 0001007  27.5600 332.5305 15.27578419 21661,15.27578419,0.0001007,LEO
63787,STARLINK-33947,2025,94.27,-1.0,+,43.0,Active,0,LEO,USA,USA,Unknown,Unknown,Unknown,1 63787U 25091N   25256.26866332  .00001941  00000+0  80018-4 0  9999,2 63787  43.0012 334.8823 0001245 279.8510  80.2201 15.27585349 21766,15.27585349,0.0001245,LEO
63788,STARLINK-33882,2025,94.27,-1.0,+,43.0,Active,0,LEO,USA,USA,Unknown,Unknown,Unknown,1 63788U 25091P   25255.91217514  .00018340  00000+0  67420-3 0  9995,2 63788  43.0023 336.5008 0001042 271.1096  88.9637 15.27586903 21701,15.27586903,0.0001042,LEO
63789,STARLINK-33875,2025,94.27,-1.0,+,43.0,Active,0,LEO,USA,USA,Unknown,Unknown,Unknown,1 63789U 25091Q   25256.22754666  .00027093  00000+0  98985-3 0  9990,2 63789  43.0020 334.5632 0003094 283.5142  76.5365 15.27597496 21764,15.27597496,0.0003094,LEO
63790,STARLINK-33869,2025,94.27,-1.0,+,43.0,Active,0,LEO,USA,USA,Unknown,Unknown,Unknown,1 63790U 25091R   25256.28650657  .00024445  00000+0  89437-3 0  9993,2 63790  43.0031 334.1465 0001652 262.5728  97.4936 15.27599752 21722,15.27599752,0.0001652,LEO
63791,STARLINK-33935,2025,94.27,-1.0,+,43.0,Active,0,LEO,USA,USA,Unknown,Unknown,Unknown,1 63791U 25091S   25256.26481105  .00013821  00000+0  51069-3 0  9998,2 63791  43.0018 334.8542 0000809 281.6603  78.4158 15.27588213 21879,15.27588213,8.09e-05,LEO
63792,STARLINK-33916,2025,94.27,-1.0,+,43.0,Active,0,LEO,USA,USA,Unknown,Unknown,Unknown,1 63792U 25091T   25256.26095220  .00013250  00000+0  49006-3 0  9992,2 63792  43.0017 334.8223 0001341 263.3435  96.7264 15.27586374 21762,15.27586374,0.0001341,LEO
63793,STARLINK-33925,2025,94.27,-1.0,+,43.0,Active,0,LEO,USA,USA,Unknown,Unknown,Unknown,1 63793U 25091U   25256.22497633  .00026705  00000+0  97620-3 0  9997,2 63793  43.0013 334.5431 0001243 264.7373  95.3337 15.27588781 21876,15.27588781,0.0001243,LEO
63794,STARLINK-33870,2025,94.27,-1.0,+,43.01,Active,0,LEO,USA,USA,Unknown,Unknown,Unknown,1 63794U 25091V   25256.28393881  .00024674  00000+0  90296-3 0  9999,2 63794  43.0064 334.1301 0002011 279.7391  80.3234 15.27586938 21776,15.27586938,0.0002011,LEO
63795,STARLINK-33867,2025,94.27,-1.0,+,43.0,Active,0,LEO,USA,USA,Unknown,Unknown,Unknown,1 63795U 25091W   25256.25324366  .00019533  00000+0  71724-3 0  9992,2 63795  42.9996 334.7621 0000057 121.5452 238.5405 15.27589728 21766,15.27589728,5.7e-06,LEO
63796,STARLINK-33918,2025,94.27,-1.0,+,43.0,Active,0,LEO,USA,USA,Unknown,Unknown,Unknown,1 63796U 25091X   25256.25452810  .00017263  00000+0  63527-3 0  9999,2 63796  43.0004 334.7743 0000701 258.4159 101.6614 15.27586188 21819,15.27586188,7.01e-05,LEO
63797,STARLINK-33712,2025,94.27,-1.0,+,43.0,Active,0,LEO,USA,USA,Unknown,Unknown,Unknown,1 63797U 25091Y   25256.24891515  .00020384  00000+0  74786-3 0  9995,2 63797  43.0011 338.2551 0000252 269.7453  90.3370 15.27595768 21724,15.27595768,2.52e-05,LEO
63798,STARLINK-33827,2025,94.27,-1.0,+,43.0,Active,0,LEO,USA,USA,Unknown,Unknown,Unknown,1 63798U 25091Z   25256.24294451  .00018124  00000+0  66552-3 0  9993,2 63798  43.0032 334.6837 0001362 270.5411  89.5284 15.27628987 21760,15.27628987,0.0001362,LEO
63799,STARLINK-33899,2025,94.27,-1.0,+,43.0,Active,0,LEO,USA,USA,Unknown,Unknown,Unknown,1 63799U 25091AA  25256.23525538  .00021842  00000+0  80074-3 0  9992,2 63799  43.0022 334.6237 0000320 169.9204 190.1654 15.27586911 21870,15.27586911,3.2e-05,LEO
63800,STARLINK-33900,2025,94.27,-1.0,+,43.0,Active,0,LEO,USA,USA,Unknown,Unknown,Unknown,1 63800U 25091AB  25256.23139934  .00016236  00000+0  59792-3 0  9990,2 63800  43.0012 334.5904 0001367 271.1070  88.9625 15.27597297 21872,15.27597297,0.0001367,LEO
63802,STARLINK-33975,2025,94.27,-1.0,+,43.0,Active,0,LEO,USA,USA,Unknown,Unknown,Unknown,1 63802U 25091AC  25256.28265182  .00017193  00000+0  63278-3 0  9999,2 63802  43.0001 334.1153 0000984 227.9766 132.1002 15.27582732 21889,15.27582732,9.84e-05,LEO
63803,STARLINK-33951,2025,94.27,-1.0,+,43.0,Active,0,LEO,USA,USA,Unknown,Unknown,Unknown,1 63803U 25091AD  25256.28779263  .00018652  00000+0  68529-3 0  9995,2 63803  43.0044 334.1569 0002508 286.7095  73.3481 15.27593657 21829,15.27593657,0.0002508,LEO
63804,STARLINK-33909,2025,94.27,-1.0,+,43.0,Active,0,LEO,USA,USA,Unknown,Unknown,Unknown,1 63804U 25092A   25256.25628601  .00017022  00000+0  62677-3 0  9991,2 63804  43.0008  95.0152 0001498 274.1787  85.8893 15.27574816 21479,15.27574816,0.0001498,LEO
63805,STARLINK-34029,2025,94.27,-1.0,+,43.0,Active,0,LEO,USA,USA,Unknown,Unknown,Unknown,1 63805U 25092B   25256.25113819  .00009322  00000+0  34802-3 0  9995,2 63805  42.9997  94.9741 0001311 284.7229  75.3478 15.27562022 21478,15.27562022,0.0001311,LEO
63806,STARLINK-34102,2025,94.27,-1.0,+,43.0,Active,0,LEO,USA,USA,Unknown,Unknown,Unknown,1 63806U 25092C   25256.24985977  .00017195  00000+0  63262-3 0  9996,2 63806  43.0016  94.9681 0001116 276.2410  83.8315 15.27595638 21526,15.27595638,0.0001116,LEO
63807,STARLINK-34109,2025,94.27,-1.0,+,43.0,Active,0,LEO,USA,USA,Unknown,Unknown,Unknown,1 63807U 25092D   25256.27284529  .00013805  00000+0  51003-3 0  9999,2 63807  43.0034  94.2760 0001615 268.8861  91.1805 15.27592915 21485,15.27592915,0.0001615,LEO
63808,STARLINK-34091,2025,94.27,-1.0,+,43.0,Active,0,LEO,USA,USA,Unknown,Unknown,Unknown,1 63808U 25092E   25255.84083873  .00015278  00000+0  56314-3 0  9997,2 63808  42.9984  97.0535 0000426 193.1637 166.9203 15.27604675 21467,15.27604675,4.26e-05,LEO
63809,STARLINK-34095,2025,94.27,-1.0,+,43.0,Active,0,LEO,USA,USA,Unknown,Unknown,Unknown,1 63809U 25092F   25256.25500270  .00010117  00000+0  37658-3 0  9996,2 63809  42.9991  95.0056 0001486 267.2680  92.8001 15.27586301 21479,15.27586301,0.0001486,LEO
63810,STARLINK-34127,2025,94.27,-1.0,+,43.0,Active,0,LEO,USA,USA,Unknown,Unknown,Unknown,1 63810U 25092G   25255.95362291  .00016679  00000+0  61410-3 0  9995,2 63810  43.0045  96.1820 0001674 267.9620  92.1040 15.27588705 21436,15.27588705,0.0001674,LEO
63811,STARLINK-34110,2025,94.27,-1.0,+,43.0,Active,0,LEO,USA,USA,Unknown,Unknown,Unknown,1 63811U 25092H   25256.24086877  .00015202  00000+0  56075-3 0  9994,2 63811  42.9995  94.8991 0001351 273.0927  86.9770 15.27584654 21523,15.27584654,0.0001351,LEO
63812,STARLINK-34101,2025,94.27,-1.0,+,43.0,Active,0,LEO,USA,USA,Unknown,Unknown,Unknown,1 63812U 25092J   25256.25999310  .00014721  00000+0  54314-3 0  9990,2 63812  43.0041  94.1737 0001672 268.9717  91.0943 15.27595469 21429,15.27595469,0.0001672,LEO
63813,STARLINK-34065,2025,94.27,-1.0,+,43.0,Active,0,LEO,USA,USA,Unknown,Unknown,Unknown,1 63813U 25092K   25256.26432233  .00019750  00000+0  72579-3 0  9998,2 63813  43.0048  90.7035 0002394 257.2056 102.8528 15.27556081 21460,15.27556081,0.0002394,LEO
63814,STARLINK-34057,2025,94.27,-1.0,+,43.0,Active,0,LEO,USA,USA,Unknown,Unknown,Unknown,1 63814U 25092L   25256.26770366  .00012154  00000+0  45024-3 0  9997,2 63814  42.9978  94.2350 0000588 274.1619  85.9165 15.27594332 21487,15.27594332,5.88e-05,LEO
63815,STARLINK-34060,2025,94.26,-1.0,+,43.0,Active,0,LEO,USA,USA,Unknown,Unknown,Unknown,1 63815U 25092M   25256.26900024  .00020024  00000+0  73455-3 0  9998,2 63815  42.9989  94.2476 0001282 308.5461  51.5276 15.27608466 21428,15.27608466,0.0001282,LEO
63816,STARLINK-34048,2025,94.27,-1.0,+,43.0,Active,0,LEO,USA,USA,Unknown,Unknown,Unknown,1 63816U 25092N   25256.24857956  .00013794  00000+0  50978-3 0  9993,2 63816  42.9997  94.9559 0001271 269.7085  90.3621 15.27584939 21529,15.27584939,0.0001271,LEO
63817,STARLINK-33959,2025,94.27,-1.0,+,43.0,Active,0,LEO,USA,USA,Unknown,Unknown,Unknown,1 63817U 25092P   25256.25742586  .00018156  00000+0  66771-3 0  9992,2 63817  43.0020  94.1561 0001595 279.4737  80.5935 15.27578567 21535,15.27578567,0.0001595,LEO
